0 DELTA 1 R/B
1  7616U 75004B   19321.93000459 +.00000002 +00000-0 +19828-4 0  9996
2  7616 097.7084 326.9045 0185715 254.8678 103.1884 14.05049624282825
0 SL-6 R/B(2)
1  7629U 75007D   19321.82282980 -.00000614 +00000-0 +00000-0 0  9990
2  7629 069.4160 357.9251 5675535 353.3899 199.1183 02.00934214189757
0 SL-6 R/B(2)
1  7629U 75007D   19322.82747972 -.00000608  00000-0  00000+0 0  9990
2  7629  69.4159 357.8710 5675590 353.3665 205.8360  2.00933008189770
0 STARLETTE
1  7646U 75010A   19322.25355162 -.00000130  00000-0  11826-4 0  9999
2  7646  49.8231 229.0121 0205782  45.1624 316.5788 13.82306876262142
0 STARLETTE
1  7646U 75010A   19321.89207023 -.00000130 +00000-0 +11980-4 0  9991
2  7646 049.8232 230.4388 0205776 043.9689 317.7372 13.82306871262107
0 DIAMANT B-P4 R/B
1  7647U 75010B   19321.82520800 -.00000114 +00000-0 +20826-4 0  9997
2  7647 049.8268 069.6096 0218446 231.7395 126.3663 13.81814597258676
0 SMS 2
1  7648U 75011A   19321.78165439 -.00000244 +00000-0 +00000-0 0  9999
2  7648 011.1924 311.1612 0010249 209.9938 155.0796 00.99514797111766
0 SMS 2
1  7648U 75011A   19322.78612984 -.00000257  00000-0  00000+0 0  9995
2  7648  11.1903 311.1492 0010235 210.0930 154.8539  0.99514633111838
0 DIAMANT B-P4 DEB
1  7654U 75010C   19322.52196149 -.00000105  00000-0  26630-4 0  9997
2  7654  49.8436 142.5594 0174594 286.4063  71.7707 13.94236461274839
0 DIAMANT B-P4 DEB
1  7654U 75010C   19321.87687486 -.00000108 +00000-0 +24910-4 0  9995
2  7654 049.8436 145.1554 0174593 284.2393 073.9170 13.94236407274518
0 DIAMANT B-P4 DEB
1  7655U 75010D   19321.86365276 -.00000073 +00000-0 +50290-4 0  9996
2  7655 049.8003 179.3627 0182095 036.3435 324.9672 13.93314242273088
0 DIAMANT B-P4 DEB
1  7659U 75010E   19321.65280626 -.00000039 +00000-0 +71881-4 0  9993
2  7659 049.8178 024.7225 0189335 167.5448 193.0223 13.92279129270332
0 DIAMANT B-P4 DEB
1  7659U 75010E   19322.51410345 -.00000047  00000-0  66787-4 0  9990
2  7659  49.8178  21.2655 0189332 170.4422 190.0157 13.92279266270631
0 COSMOS 708
1  7663U 75012A   19321.78371723 -.00000030 +00000-0 +59127-4 0  9993
2  7663 069.2354 024.9889 0026558 189.0959 286.5614 12.68267730072777
0 SL-8 R/B
1  7665U 75012B   19321.89855525 +.00000020 +00000-0 +30929-3 0  9990
2  7665 069.2281 277.5590 0021633 153.7040 269.5734 12.70391243075891
0 SL-8 R/B
1  7665U 75012B   19322.46619909  .00000016  00000-0  28698-3 0  9993
2  7665  69.2282 276.5491 0021607 153.1482 345.6662 12.70391280 76210
0 COSMOS 711
1  7678U 75016A   19321.86637458 -.00000019 +00000-0 -19493-4 0  9992
2  7678 074.0052 000.9704 0020722 266.6392 145.2334 12.47046186035723
0 COSMOS 712
1  7679U 75016B   19321.90648660 -.00000011 +00000-0 +33612-4 0  9995
2  7679 074.0022 101.8153 0050838 302.7040 233.4218 12.53422435046111
0 COSMOS 712
1  7679U 75016B   19322.52016181 -.00000008  00000-0  49979-4 0  9990
2  7679  74.0024 100.9932 0050848 301.7843 122.5144 12.53422450 46437
0 COSMOS 713
1  7680U 75016C   19321.73060441 -.00000015 +00000-0 +50320-5 0  9993
2  7680 074.0047 011.7420 0058581 191.0560 303.9807 12.55631287049710
0 COSMOS 714
1  7681U 75016D   19321.93624087 -.00000002 +00000-0 +89346-4 0  9993
2  7681 074.0027 270.8438 0029162 149.5023 267.1663 12.49262503039399
0 COSMOS 714
1  7681U 75016D   19322.35950826 -.00000000  00000-0  10266-3 0  9995
2  7681  74.0028 270.2812 0029153 148.8464  10.7676 12.49262501 39632
0 COSMOS 715
1  7682U 75016E   19321.88430649 -.00000003 +00000-0 +91988-4 0  9993
2  7682 074.0026 094.8251 0021633 048.3925 125.6047 12.44707433602838
0 COSMOS 716
1  7683U 75016F   19321.93444677 -.00000018 +00000-0 -13928-4 0  9991
2  7683 074.0022 187.2514 0022076 191.3869 273.4813 12.42410827028181
0 COSMOS 717
1  7684U 75016G   19321.42024630 -.00000012 +00000-0 +24660-4 0  9997
2  7684 074.0021 292.5936 0036148 318.3442 200.8798 12.39798492023917
0 COSMOS 718
1  7685U 75016H   19321.90937429 -.00000009 +00000-0 +44178-4 0  9992
2  7685 074.0019 186.3478 0038339 040.3307 037.5282 12.51352089042750
0 SL-8 R/B
1  7686U 75016J   19321.49245628 +.00000065 +00000-0 +71791-3 0  9991
2  7686 073.9997 317.2293 0163242 099.9826 015.4728 12.21042799992825
0 SL-8 R/B
1  7686U 75016J   19322.40685159  .00000070  00000-0  76763-3 0  9990
2  7686  73.9997 316.0759 0163237  98.6792  74.9343 12.21042922993171
0 TITAN 34B R/B
1  7688U 75017B   19321.56297786 +.00000612 +00000-0 +19428-3 0  9991
2  7688 063.3922 131.3641 5933323 263.4564 029.9703 04.10235410009349
0 METEOR 1-21
1  7714U 75023A   19321.81949041 -.00000089 +00000-0 -59497-4 0  9995
2  7714 081.2135 051.2413 0030339 287.2853 072.4998 14.08009517609289
0 METEOR 1-21
1  7714U 75023A   19322.74329226 -.00000081  00000-0 -54583-4 0  9998
2  7714  81.2135  50.3420 0030323 284.5824  75.1983 14.08009391609664
0 SL-3 R/B
1  7715U 75023B   19321.88227527 -.00000014 +00000-0 -15927-4 0  9999
2  7715 081.2205 092.5333 0051061 165.4842 194.7808 14.06775144289665
0 SL-3 R/B
1  7715U 75023B   19322.45127087 -.00000020  00000-0 -19414-4 0  9995
2  7715  81.2206  91.9810 0051073 163.9222 196.3583 14.06775086290000
0 COSMOS 723
1  7718U 75024A   19322.88506679 -.00000086  00000-0  45993-5 0  9997
2  7718  64.7149 161.5253 0063759 290.8448  68.5792 13.89497751265165
0 COSMOS 723
1  7718U 75024A   19321.87745309 -.00000092 +00000-0 +41660-6 0  9995
2  7718 064.7150 164.1869 0063726 291.0355 068.3897 13.89497705264840
0 COSMOS 724
1  7727U 75025A   19321.89782907 -.00000081 +00000-0 +48974-5 0  9995
2  7727 065.5883 179.0157 0052203 159.8309 200.4842 13.98920932279506
0 GEOS 3
1  7734U 75027A   19321.63968330 -.00000158 +00000-0 +84606-5 0  9990
2  7734 114.9884 167.3037 0007413 242.5351 117.4973 14.18645332308271
0 GEOS 3
1  7734U 75027A   19322.62660880 -.00000161  00000-0  69696-5 0  9995
2  7734 114.9883 170.0101 0007362 242.9308 117.1019 14.18645360308664
0 COSMOS 726
1  7736U 75028A   19322.28082201  .00000026  00000-0  10613-4 0  9998
2  7736  82.9976 198.5313 0025114 318.2390  41.6850 13.78214424242935
0 COSMOS 726
1  7736U 75028A   19321.77263188 +.00000026 +00000-0 +10390-4 0  9998
2  7736 082.9977 198.9068 0025141 319.7148 040.2146 13.78214402242618
0 SL-8 R/B
1  7737U 75028B   19321.73558591 +.00000132 +00000-0 +11138-3 0  9998
2  7737 082.9916 161.5980 0017894 181.2902 226.9285 13.80430144245444
0 SL-8 R/B
1  7737U 75028B   19322.53457258  .00000130  00000-0  10914-3 0  9994
2  7737  82.9915 161.0049 0017946 179.0307 237.5386 13.80430298245806
0 COSMOS 729
1  7768U 75034A   19322.50795187  .00000009  00000-0 -61858-5 0  9999
2  7768  82.9623 100.2816 0023258  15.0494  51.4598 13.73397814233546
0 COSMOS 729
1  7768U 75034A   19321.93521920 +.00000006 +00000-0 -10158-4 0  9990
2  7768 082.9622 100.7035 0023292 016.6194 099.7607 13.73397795233134
0 SL-8 R/B
1  7769U 75034B   19321.89466911 +.00000032 +00000-0 +17684-4 0  9993
2  7769 082.9633 070.0536 0017402 250.9592 248.8104 13.74889506235445
0 SL-8 R/B
1  7769U 75034B   19322.84258181  .00000040  00000-0  26667-4 0  9997
2  7769  82.9634  69.3535 0017431 248.1326 260.7830 13.74889607235791
0 ANIK A3 (TELESAT-3)
1  7790U 75038A   19321.58414275 -.00000345 +00000-0 +00000-0 0  9991
2  7790 012.6096 325.0813 0003681 342.5972 072.7850 01.00046539105914
0 ANIK A3 (TELESAT-3)
1  7790U 75038A   19322.45463289 -.00000344  00000-0  00000+0 0  9995
2  7790  12.6082 325.0719 0003702 342.5623  26.3554  1.00046090105919
0 SL-6 R/B(2)
1  7800U 75036D   19322.20272349 -.00000999  00000-0  26846-4 0  9990
2  7800  61.8283  98.3908 7448054 278.5402  11.1637  1.96691651319930
0 INTELSAT 4-F1
1  7815U 75042A   19321.38261728 -.00000303 +00000-0 +00000-0 0  9999
2  7815 013.0226 327.4795 0009238 219.4865 140.4222 00.99262634098093
0 OPS 6226
1  7816U 75043A   19321.63241393 +.00000025 +00000-0 +30417-4 0  9994
2  7816 098.7876 151.1615 0052192 312.6495 047.0290 14.23659746017713
0 OPS 6226
1  7816U 75043A   19322.54606537  .00000030  00000-0  32457-4 0  9992
2  7816  98.7875 152.0745 0052164 309.9806  49.6798 14.23659868 17840
0 THOR BURNER 2 R/B
1  7817U 75043B   19322.63751558 -.00000004  00000-0  19255-4 0  9990
2  7817  98.8578 152.5380 0053715 170.1190 190.1055 14.19075588 22580
0 THOR BURNER 2 R/B
1  7817U 75043B   19321.65039856 -.00000009 +00000-0 +16777-4 0  9992
2  7817 098.8579 151.5513 0053666 172.9405 187.2538 14.19075537022444
0 COSMOS 732
1  7820U 75045A   19321.73790830 -.00000017 +00000-0 -58967-5 0  9991
2  7820 074.0185 350.7559 0043442 240.6279 244.2101 12.56679201040338
0 COSMOS 733
1  7822U 75045B   19321.69116906 -.00000019 +00000-0 -25437-4 0  9991
2  7822 074.0183 348.0248 0052537 136.4815 340.8525 12.38804863011353
0 COSMOS 734
1  7823U 75045C   19321.81726897 -.00000020 +00000-0 -23255-4 0  9990
2  7823 074.0168 190.0399 0017434 124.5610 308.3067 12.51756525032345
0 COSMOS 734
1  7823U 75045C   19322.78606139 -.00000023  00000-0 -47365-4 0  9994
2  7823  74.0166 188.7475 0017422 123.0620 354.0385 12.51756544 32694
0 COSMOS 735
1  7824U 75045D   19322.86429097  .00000001  00000-0  11080-3 0  9998
2  7824  74.0165 286.6214 0008799 272.4272 112.2904 12.49328001 28766
0 COSMOS 735
1  7824U 75045D   19321.91113821 -.00000009 +00000-0 +44231-4 0  9992
2  7824 074.0164 287.8875 0008809 273.6416 145.6240 12.49327970028437
0 COSMOS 736
1  7825U 75045E   19321.90890444 -.00000010 +00000-0 +37953-4 0  9990
2  7825 074.0208 027.5639 0009826 121.4631 285.1038 12.46848347024381
0 COSMOS 736
1  7825U 75045E   19322.40851484 -.00000014  00000-0  10390-4 0  9997
2  7825  74.0208  26.9034 0009820 120.6923   7.7069 12.46848345 24685
